{
  "type": "FeatureCollection",
  "features": [
    {
      "type": "Feature",
      "properties": {
        "name": "North Harbor"
      },
      "geometry": {
        "type": "Polygon",
        "coordinates": [
          [
            [-8, 4],
            [-2, 4],
            [-1, 9],
            [-7, 10],
            [-8, 4]
          ]
        ]
      }
    },
    {
      "type": "Feature",
      "properties": {
        "name": "Old Town"
      },
      "geometry": {
        "type": "Polygon",
        "coordinates": [
          [
            [-3, -2],
            [3, -2],
            [4, 3],
            [-2, 4],
            [-3, -2]
          ]
        ]
      }
    },
    {
      "type": "Feature",
      "properties": {
        "name": "South Point"
      },
      "geometry": {
        "type": "Polygon",
        "coordinates": [
          [
            [2, -8],
            [9, -7],
            [8, -1],
            [3, -2],
            [2, -8]
          ]
        ]
      }
    }
  ]
}
